#dP2023  6 29  0  0  0.00000000      96 __u+U ITR00 EXT  IAC
## 2268 345600.00000000   900.00000000 60124 0.0000000000000
+  116   C06C07C09C10C11C12C13C14C16C19C20C21C22C23C24C25C26
+        C27C28C29C30C32C33C34C35C36C37C39C40C41C42C43C44C45
+        C46E02E03E04E05E07E08E09E10E11E12E13E14E15E18E19E21
+        E24E25E26E27E30E33E34E36G01G02G03G04G05G06G07G08G09
+        G10G11G12G13G14G15G16G17G18G19G20G21G22G23G24G25G26
+        G27G28G29G30G31G32J02J03J04R01R02R03R04R05R07R08R09
+        R11R12R13R14R15R16R17R18R19R20R21R22R24R25  0  0  0
++         0  0  0  0  0  0  0  0  0  0  0  0  0  0  0  0  0
++         0  0  0  0  0  0  0  0  0  0  0  0  0  0  0  0  0
++         0  0  0  0  0  0  0  0  0  0  0  0  0  0  0  0  0
++         0  0  0  0  0  0  0  0  0  0  0  0  0  0  0  0  0
++         0  0  0  0  0  0  0  0  0  0  0  0  0  0  0  0  0
++         0  0  0  0  0  0  0  0  0  0  0  0  0  0  0  0  0
++         0  0  0  0  0  0  0  0  0  0  0  0  0  0  0  0  0
%c M  cc GPS ccc cccc cccc cccc cccc ccccc ccccc ccccc ccccc
%c cc cc ccc ccc cccc cccc cccc cccc ccccc ccccc ccccc ccccc
%f  0.0000000  0.000000000  0.00000000000  0.000000000000000
%f  0.0000000  0.000000000  0.00000000000  0.000000000000000
%i    0    0    0    0      0      0      0      0         0
%i    0    0    0    0      0      0      0      0         0
/* IAC                                ULTRA-RAPID PREDICTION
/* S/V CLOCKS ARE ALIGNED TO GNSS TIME                      
/* G:C1WC2W R:C1PC2P E:C1XC5X C:C2IC6I J:C1CC2S             
/* PCV:IGS20_2247 OL/AL:FES2004  NONE     YN ORB:CoN CLK:CoN
*  2023 06 29 17  0  0.00000000
PC06 -13098.728965  23390.074962  32510.887375   -169.224278
PC07 -12677.447297  40088.817902  -4388.811473   -246.869485
PC09  -1339.079150  24675.151680  34582.843047    476.105272
PC10  -8060.597375  40539.239145  -9353.528607    -99.985380
PC11 -15645.204302 -10706.149812  20546.727404    699.970980
PC12   5152.059416 -16153.702250  22191.740648    749.527910
PC13   7688.204728  35270.658994 -21405.067235    305.929301
PC14  -8584.762170 -17941.802560 -19533.442979    485.832362
PC16 -13811.142522  22910.500647  32771.001675     25.031523
PC19  13662.682782   8463.547180  22839.077355   -930.950634
PC20   3184.220250  23669.708224  14474.961148    470.306052
PC21  10144.061712 -25759.358521   3390.117145   -928.663286
PC22  16834.833207 -12406.540707  18458.538775   -418.649103
PC23 -19403.471556    507.969475  20061.432589   -964.460004
PC24 -11278.452808 -23210.601581 -10653.456462    117.566467
PC25 -22349.254172 -14949.074663   7500.569180    157.552416
PC26   4324.933938 -17480.959785 -21337.018127   -141.693615
PC27 -14005.339008  16042.730999 -18054.179884    162.341057
PC28 -26182.134730   8784.187797  -4035.054696    120.797410
PC29  23594.549225   4075.781343 -14341.878755    140.608608
PC30   6176.751830  14859.051744 -22811.560429     -1.683452
PC32  -9972.969815  25844.773757  -3436.533453   -543.690427
PC33 -13704.473927  -8443.970578 -22790.297312   -903.735747
PC34  -7647.412820 -14404.162033  22626.315234    203.887603
PC35  26042.415839  -9443.290242   3512.774263    598.404128
PC36  21813.654516  16014.213357  -6777.185057   -356.231857
PC37  -5736.005645  16642.474018  21667.662099   -788.642269
PC39 -20043.174633  22183.250569  29673.178641     -3.560444
PC40 -19618.358924  37384.683847  -2564.950705    -27.775258
PC41 -16862.540679  11820.343032 -18787.942153   -911.619295
PC42  -2257.647506 -24387.907991 -13304.226107   -630.608219
PC43 -23087.920124  -4764.814701  14904.893048     28.441294
PC44  13613.363061 -16614.634053  17812.218294    153.303648
PC45  19056.971740   -910.116867 -20352.495284   -116.406442
PC46  12410.877223  23120.694083   9447.547884    -65.163727
PE02   1956.717064 -27634.191256 -10442.538144     46.891305
PE03  11066.679237 -23297.919008 -14507.468592    -31.165945
PE04   7677.898189  15628.415442  23947.438394   -155.651434
PE05  23645.541230 -17434.260942   3604.190208     -5.022449
PE07 -22145.314931   1157.931988 -19604.207536    -56.298806
PE08  -7280.277204 -15741.582633 -23980.995881   -106.656552
PE09  21974.692056  -1092.467631  19798.519658    -67.251815
PE10  25241.058536  13516.420244  -7511.304656   -544.832565
PE11  28462.665121   7583.925217   2970.191377   2355.908334
PE12  18372.626466  17010.569060 -15811.640388   -598.904431
PE13 -28406.371244  -7999.652268  -2267.261268    -19.312582
PE14 -16435.995610  24951.459856 -12457.373542    268.051916
PE15 -18093.774956 -17001.759553  16109.367716    -33.228315
PE18  12751.418096 -17837.109653   8595.627763    238.575084
PE19 -13445.091308  23235.672690  12483.128656  -2188.544991
PE21 -13119.640854  13842.471368  22640.377809   -537.832805
PE24  17316.291524   9477.804049 -22061.501465   -182.059671
PE25  13271.224295 -13483.952703 -22756.825598   -607.535859
PE26 -21449.860779   6158.717353 -19452.530382    148.457174
PE27 -17347.159566  -8697.661843  22358.400889    -86.844939
PE30 -10962.442268 -26174.196189   8430.978323   -295.217052
PE33  -2805.337504  15892.962193 -24818.854091   -442.555132
PE34   2607.161302 -15941.099898  24791.208971    -53.426403
PE36  21961.145824  -5549.595361  19052.121607    -78.552979
PG01  20513.350131  14653.721676  -9243.590612    175.515823
PG02  16959.514347  14720.774263 -13789.726259   -581.097933
PG03  12516.459217  18876.237189  13832.185892   -252.336500
PG04  14042.732865   7804.688326  21180.390686     81.777880
PG05  -4998.129948 -26004.875116    781.995383   -132.983471
PG06  15452.166233  -8185.147915  20080.528322    582.001823
PG07  25594.250408   5833.887303  -5021.069171    139.045390
PG08   3607.542419  16178.250227 -20742.168127   -129.755752
PG09  20440.117879  -1958.034206  16794.517830   -124.213746
PG10 -11914.411443  11719.722905 -20384.277274    -43.164875
PG11   -339.057979 -16098.075297  21138.935209   -255.278118
PG12  -9804.636314 -21947.046076  11106.494075   -394.623145
PG13   5788.036732 -18345.409048 -18401.420125    540.571259
PG14  14012.851038  -8342.280372 -20920.519317    106.448900
PG15  -6432.814195 -15793.501380 -20777.411040     53.391350
PG16   -779.448178  25952.271890   3983.634257   -486.334377
PG17  22393.531625 -14084.450625  -2532.704566    719.790081
PG18 -24952.833895  -3594.869327  -8621.237081   -326.655566
PG19  20000.987809 -16624.661615   4247.200736    337.180547
PG20   -101.678035 -24303.766490  10965.017761    425.362619
PG21  14864.439070  15488.057724 -15642.393677    152.670268
PG22 -17201.658545  18664.569012   7990.520038    505.394378
PG23 -15331.791519  -1991.152782 -21611.780331     38.032214
PG24 -17983.448317 -15095.150585 -13169.786933   -241.435225
PG25 -15376.207374 -10605.233665  18670.296261    452.985611
PG26  -6467.219802  20703.389665  14980.795529    237.861499
PG27  -8031.656465  20243.991659 -15163.775369      6.813936
PG28 -17026.309251   8058.312107  18703.369644     83.587288
PG29 -19522.039935  -1134.861993  17966.175271   -604.238137
PG30  22525.100309  -2379.290884 -13960.797808   -507.769684
PG31  -6133.217932  14001.799264  21547.174084   -219.123229
PG32 -20680.295946  16455.263414   -954.814101   -510.815017
PJ02 -27511.863447  24720.158086  25375.858055     -0.916575
PJ03 -30589.510082  18247.440634 -17820.829925      7.853282
PJ04 -21349.090961  33564.222213  -9141.832823     96.038477
PR01  -5715.254952 -12061.325720 -21732.319300     60.388571
PR02 -13939.757616   5993.696097 -20439.627485    -22.644601
PR03 -14027.025886  20045.192805  -7071.513005     80.592901
PR04  -6605.740849  22572.209743   9892.863947    193.114601
PR05   4475.029408  12960.923363  21516.633633    114.974316
PR07  13905.654448 -20451.123904   6388.988073     59.080698
PR08   6386.509470 -22609.479841  -9910.629373    -71.459308
PR09  15843.901469   6534.040212 -18904.338840    128.473338
PR11  -5431.428263 -20386.409034 -14309.926002    -91.831860
PR12 -15445.496016 -19866.808749   4241.428883     28.599937
PR13 -16072.840288  -8552.761268  17855.973642    -36.577463
PR14  -6602.073464   9886.782265  22587.574120     24.858614
PR15   6053.170564  20943.652640  13275.467095     88.212825
PR16  15462.147003  19938.981215  -3863.999609     16.150022
PR17 -18879.902491   7808.228016 -15300.153159     -4.604214
PR18  -2538.763439  10489.819975 -23101.163279     89.073570
PR19  13498.427363   8738.837150 -19805.768295   -238.053442
PR20  25417.790754    890.565381  -2197.765365    -95.629928
PR21  17853.295777  -8034.081391  16326.786904    -18.962365
PR22   1867.942234 -10857.883782  23027.242882     86.915149
PR24 -25469.347246    249.748762   1568.220582    -14.257798
PR25  19238.975229  -7122.608768  15144.167581     57.745891
EOF
